ONEWEB-0545             
1 54647U 22166F   24159.93917797  .00000106  00000+0  22412-3 0  9996
2 54647  87.9290  31.1630 0001792  99.3789 260.7547 13.21826061 73844
ONEWEB-0580             
1 54648U 22166G   24160.13945631 -.00002013  00000+0 -49069-2 0  9996
2 54648  87.9303  31.0911 0001609  97.3375 262.7942 13.21836496 74370
ONEWEB-0582             
1 54649U 22166H   24160.18202406  .00000082  00000+0  16697-3 0  9992
2 54649  87.9296  31.1204 0001233  97.8878 262.2396 13.21824999 74366
ONEWEB-0583             
1 54650U 22166J   24159.89027991  .00000093  00000+0  19267-3 0  9992
2 54650  87.9295  31.1787 0001863  85.8612 274.2735 13.21826141 73860
ONEWEB-0584             
1 54651U 22166K   24160.13786349  .00000111  00000+0  23762-3 0  9997
2 54651  87.9298  31.0947 0001600  91.2945 268.8373 13.21825409 74358
ONEWEB-0585             
1 54652U 22166L   24160.16310568  .00000046  00000+0  81041-4 0  9999
2 54652  87.9301  31.0981 0001918  80.6636 279.4715 13.21826122 74365
ONEWEB-0586             
1 54653U 22166M   24159.87293059  .00000007  00000+0 -15629-4 0  9998
2 54653  87.9299  31.1715 0001697  89.1439 270.9890 13.21823614 73853
ONEWEB-0587             
1 54654U 22166N   24159.88239580  .00000037  00000+0  58456-4 0  9996
2 54654  87.9293  31.1250 0002078  77.6122 282.5245 13.21827226 74012
